[{"OBJECT_NAME":"STARLINK-5160","OBJECT_ID":"2022-136AF","EPOCH":"2026-03-09T21:36:47.164896","MEAN_MOTION":15.08838164,"ECCENTRICITY":0.00015962,"INCLINATION":53.2184,"RA_OF_ASC_NODE":338.3363,"ARG_OF_PERICENTER":117.4702,"MEAN_ANOMALY":242.6453,"EPHEMERIS_TYPE":0,"CLASSIFICATION_TYPE":"U","NORAD_CAT_ID":54080,"ELEMENT_SET_NO":999,"REV_AT_EPOCH":18694,"BSTAR":-3.2370693e-5,"MEAN_MOTION_DOT":-8.03e-6,"MEAN_MOTION_DDOT":0},{"OBJECT_NAME":"LEMUR-2-MARHISYAM","OBJECT_ID":"2024-149BW","EPOCH":"2026-03-09T17:46:07.876416","MEAN_MOTION":15.0901552,"ECCENTRICITY":0.00035778,"INCLINATION":97.6912,"RA_OF_ASC_NODE":151.2662,"ARG_OF_PERICENTER":107.3271,"MEAN_ANOMALY":252.8349,"EPHEMERIS_TYPE":0,"CLASSIFICATION_TYPE":"U","NORAD_CAT_ID":60536,"ELEMENT_SET_NO":999,"REV_AT_EPOCH":8547,"BSTAR":0.00082973442,"MEAN_MOTION_DOT":0.00013075,"MEAN_MOTION_DDOT":0}]
